[{"OBJECT_NAME":"STARLINK-11354 [DTC]","OBJECT_ID":"2024-184A","EPOCH":"2026-03-09T16:10:07.979808","MEAN_MOTION":15.69731521,"ECCENTRICITY":8.992e-5,"INCLINATION":53.1597,"RA_OF_ASC_NODE":236.4315,"ARG_OF_PERICENTER":81.1877,"MEAN_ANOMALY":278.9243,"EPHEMERIS_TYPE":0,"CLASSIFICATION_TYPE":"U","NORAD_CAT_ID":61532,"ELEMENT_SET_NO":999,"REV_AT_EPOCH":8041,"BSTAR":3.3663194e-5,"MEAN_MOTION_DOT":3.495e-5,"MEAN_MOTION_DDOT":0},{"OBJECT_NAME":"AVUM R\/B","OBJECT_ID":"2015-028B","EPOCH":"2026-03-09T15:47:10.915008","MEAN_MOTION":15.38120394,"ECCENTRICITY":0.01316946,"INCLINATION":98.6577,"RA_OF_ASC_NODE":312.3046,"ARG_OF_PERICENTER":250.9525,"MEAN_ANOMALY":107.7413,"EPHEMERIS_TYPE":0,"CLASSIFICATION_TYPE":"U","NORAD_CAT_ID":40698,"ELEMENT_SET_NO":999,"REV_AT_EPOCH":58785,"BSTAR":0.00031736457,"MEAN_MOTION_DOT":0.00015963,"MEAN_MOTION_DDOT":0}]
